# ****************************************************************************
# CUI
#
# The Advanced Framework for Simulation, Integration, and Modeling (AFSIM)
#
# The use, dissemination or disclosure of data in this file is subject to
# limitation or restriction. See accompanying README and LICENSE for details.
# ****************************************************************************
# See satellite_types.txt for platform type definitions.

platform IRIDIUM_8_(24792) IRIDIUM
   orbit
1 24792U 97020A   14243.45347200  .00000229  00000-0  74644-4 0  9577
2 24792  86.3978  25.3470 0002179 112.2583 247.8844 14.34219031906896
   end_orbit
end_platform

platform IRIDIUM_7_(24793) IRIDIUM
   orbit
1 24793U 97020B   14243.45863421  .00000229  00000-0  74691-4 0  9499
2 24793  86.3983  25.5713 0002198 110.2497 309.0429 14.34221537906892
   end_orbit
end_platform

platform IRIDIUM_6_(24794) IRIDIUM
   orbit
1 24794U 97020C   14243.44080568  .00000239  00000-0  78338-4 0  7549
2 24794  86.3982  25.5312 0002346 110.2055 249.9394 14.34222266906895
   end_orbit
end_platform

platform IRIDIUM_5_(24795) IRIDIUM
   orbit
1 24795U 97020D   14243.43446185  .00000233  00000-0  76272-4 0  1622
2 24795  86.3978  25.6190 0002117 104.1223 256.0208 14.34222607906972
   end_orbit
end_platform

platform IRIDIUM_12_(24837) IRIDIUM
   orbit
1 24837U 97030B   14243.46098951  .00000113  00000-0  33250-4 0  9654
2 24837  86.3931  56.7737 0002073 108.1579 305.7079 14.34218580900640
   end_orbit
end_platform

platform IRIDIUM_10_(24839) IRIDIUM
   orbit
1 24839U 97030D   14243.45013453  .00000120  00000-0  35794-4 0  9797
2 24839  86.3930  56.7642 0002085 108.9228 314.4567 14.34218206900653
   end_orbit
end_platform

platform IRIDIUM_13_(24840) IRIDIUM
   orbit
1 24840U 97030E   14243.46727983  .00000115  00000-0  33841-4 0  9098
2 24840  86.3931  56.8758 0001925 107.9834 305.7251 14.34218493900649
   end_orbit
end_platform

platform IRIDIUM_15_(24869) IRIDIUM
   orbit
1 24869U 97034A   14243.45700823  .00000138  00000-0  42045-4 0   436
2 24869  86.3925  88.5040 0002099 103.5557 305.2136 14.34217495897616
   end_orbit
end_platform

platform IRIDIUM_18_(24872) IRIDIUM
   orbit
1 24872U 97034D   14243.47928003  .00000110  00000-0  32371-4 0  9456
2 24872  86.3921  88.7040 0002386  96.6284 263.5184 14.34220469897610
   end_orbit
end_platform

platform IRIDIUM_25_(24904) IRIDIUM
   orbit
1 24904U 97043B   14243.28806675  .00000284  00000-0  94421-4 0  9862
2 24904  86.3989 322.1866 0002430 107.8543 252.2917 14.34219108891480
   end_orbit
end_platform

platform IRIDIUM_46_(24905) IRIDIUM
   orbit
1 24905U 97043C   14243.37051886  .00000260  00000-0  85887-4 0  9757
2 24905  86.3999 322.6117 0002416 110.6549 249.4905 14.34218531891516
   end_orbit
end_platform

platform IRIDIUM_22_(24907) IRIDIUM
   orbit
1 24907U 97043E   14243.34713185  .00000024  00000-0  14682-5 0  9465
2 24907  86.4000 322.7128 0002367 112.2970 290.8251 14.34216255891511
   end_orbit
end_platform

platform IRIDIUM_32_(24945) IRIDIUM
   orbit
1 24945U 97051B   14243.43736670  .00000278  00000-0  92191-4 0  9753
2 24945  86.4008 353.7785 0002337 113.2444 246.8998 14.34218796888111
   end_orbit
end_platform

platform IRIDIUM_30_(24949) IRIDIUM
   orbit
1 24949U 97051F   14243.36125475  .00000273  00000-0  90531-4 0   116
2 24949  86.4010 353.8908 0002398 112.7035 247.4415 14.34220199888080
   end_orbit
end_platform

platform IRIDIUM_31_(24950) IRIDIUM
   orbit
1 24950U 97051G   14243.35491252  .00000012  00000-0 -26545-5 0  9358
2 24950  86.4009 353.8959 0002097 116.7798 243.3612 14.34217895888096
   end_orbit
end_platform

platform IRIDIUM_19_(24965) IRIDIUM
   orbit
1 24965U 97056A   14243.40906688  .00000233  00000-0  76195-4 0  9134
2 24965  86.3979  25.3670 0002186 111.5118 248.6311 14.34223169886246
   end_orbit
end_platform

platform IRIDIUM_35_(24966) IRIDIUM
   orbit
1 24966U 97056B   14243.49153443  .00000232  00000-0  75729-4 0  9644
2 24966  86.3978  25.3360 0002180 110.5762 249.5668 14.34221199886235
   end_orbit
end_platform

platform IRIDIUM_37_(24968) IRIDIUM
   orbit
1 24968U 97056D   14243.46615668  .00000238  00000-0  77897-4 0  9357
2 24968  86.3980  25.5031 0002158 112.0973 248.0452 14.34218447886230
   end_orbit
end_platform

platform IRIDIUM_34_(24969) IRIDIUM
   orbit
1 24969U 97056E   14243.48518515  .00000234  00000-0  76464-4 0  9178
2 24969  86.3981  25.4334 0002165 111.1851 248.9576 14.34221264886237
   end_orbit
end_platform

platform IRIDIUM_43_(25039) IRIDIUM
   orbit
1 25039U 97069A   14243.19385804  .00000020  00000-0 -82730-7 0  9217
2 25039  86.3914  88.7454 0001859 115.9202 244.2185 14.34220146879974
   end_orbit
end_platform

platform IRIDIUM_41_(25040) IRIDIUM
   orbit
1 25040U 97069B   14243.47531068  .00000094  00000-0  26451-4 0  9209
2 25040  86.3926  88.6019 0002252  99.8361 305.2251 14.34217252880012
   end_orbit
end_platform

platform IRIDIUM_40_(25041) IRIDIUM
   orbit
1 25041U 97069C   14243.49197714  .00000109  00000-0  31867-4 0  9707
2 25041  86.3925  88.5378 0002103 102.4778 257.6654 14.34217493880033
   end_orbit
end_platform

platform IRIDIUM_39_(25042) IRIDIUM
   orbit
1 25042U 97069D   14243.49831326  .00000098  00000-0  27950-4 0  9460
2 25042  86.3923  88.8179 0001925 106.7713 253.3694 14.34216810880018
   end_orbit
end_platform

platform IRIDIUM_42_(25077) IRIDIUM
   orbit
1 25077U 97077A   14243.48561906  .00000147  00000-0  45565-4 0  9333
2 25077  86.3928  88.6541 0002073 103.2102 256.9325 14.34222530875875
   end_orbit
end_platform

platform IRIDIUM_45_(25104) IRIDIUM
   orbit
1 25104U 97082A   14243.34817027  .00000265  00000-0  87773-4 0  8734
2 25104  87.0306 332.8383 0002655 103.1974 256.9519 14.34223046874051
   end_orbit
end_platform

platform IRIDIUM_47_(25106) IRIDIUM
   orbit
1 25106U 97082C   14243.38640880  .00000260  00000-0  85755-4 0  8666
2 25106  86.3987 322.0505 0002506 111.1672 298.2379 14.34219156874056
   end_orbit
end_platform

platform IRIDIUM_49_(25108) IRIDIUM
   orbit
1 25108U 97082E   14243.33321262  .00000259  00000-0  85303-4 0  8907
2 25108  86.3989 322.1483 0002425 110.2560 319.2158 14.34218929874058
   end_orbit
end_platform

platform IRIDIUM_52_(25169) IRIDIUM
   orbit
1 25169U 98010A   14243.49867882  .00000111  00000-0  32557-4 0  6601
2 25169  86.3934  57.0046 0002060 108.0481 304.0846 14.34218936865487
   end_orbit
end_platform

platform IRIDIUM_56_(25170) IRIDIUM
   orbit
1 25170U 98010B   14243.49250016  .00000018  00000-0 -77412-6 0  7135
2 25170  86.3932  57.0988 0002285 113.1697 299.2620 14.34212607865469
   end_orbit
end_platform

platform IRIDIUM_54_(25171) IRIDIUM
   orbit
1 25171U 98010C   14243.44420693  .00000115  00000-0  33824-4 0  8899
2 25171  86.3934  57.0427 0002055 108.5039 251.6380 14.34218353865620
   end_orbit
end_platform

platform IRIDIUM_50_(25172) IRIDIUM
   orbit
1 25172U 98010D   14243.08420381  .00000110  00000-0  32272-4 0  9504
2 25172  86.3933  57.1550 0002066 108.5805  30.3417 14.34219372865402
   end_orbit
end_platform

platform IRIDIUM_53_(25173) IRIDIUM
   orbit
1 25173U 98010E   14243.50506479  .00000110  00000-0  32168-4 0  9206
2 25173  86.3934  56.9854 0002050 108.3691 304.0146 14.34218416865477
   end_orbit
end_platform

platform IRIDIUM_61_(25263) IRIDIUM
   orbit
1 25263U 98018B   14243.47250215  .00000055  00000-0  12555-4 0  8399
2 25263  86.3981  25.4686 0002182 110.7100 249.4330 14.34219731860564
   end_orbit
end_platform

platform IRIDIUM_55_(25272) IRIDIUM
   orbit
1 25272U 98019A   14243.40565202  .00000239  00000-0  78414-4 0  8433
2 25272  86.4008 353.7072 0002345 112.2900 247.8545 14.34219671859759
   end_orbit
end_platform

platform IRIDIUM_57_(25273) IRIDIUM
   orbit
1 25273U 98019B   14243.45005138  .00000263  00000-0  86850-4 0  8773
2 25273  86.4012 353.9502 0002341 111.8977 248.2468 14.34220066859760
   end_orbit
end_platform

platform IRIDIUM_58_(25274) IRIDIUM
   orbit
1 25274U 98019C   14243.45639761  .00000258  00000-0  85173-4 0  7218
2 25274  86.4015 354.1155 0002401 112.3183 247.8268 14.34219628859768
   end_orbit
end_platform

platform IRIDIUM_59_(25275) IRIDIUM
   orbit
1 25275U 98019D   14243.25342200  .00000245  00000-0  80378-4 0  4806
2 25275  86.4008 354.1090 0002337 115.0499 245.0939 14.34223129859730
   end_orbit
end_platform

platform IRIDIUM_60_(25276) IRIDIUM
   orbit
1 25276U 98019E   14243.39931083  .00000272  00000-0  90201-4 0  9402
2 25276  86.4006 353.7072 0002301 111.6766 248.4675 14.34219690859758
   end_orbit
end_platform

platform IRIDIUM_62_(25285) IRIDIUM
   orbit
1 25285U 98021A   14243.29098852  .00000207  00000-0  66812-4 0  9041
2 25285  86.3942 290.6380 0002472 109.2472 250.8991 14.34218559858696
   end_orbit
end_platform

platform IRIDIUM_63_(25286) IRIDIUM
   orbit
1 25286U 98021B   14243.45077170  .00000198  00000-0  63794-4 0  9472
2 25286  86.3971 290.8488 0002323 112.9489 319.1553 14.34222271858716
   end_orbit
end_platform

platform IRIDIUM_64_(25287) IRIDIUM
   orbit
1 25287U 98021C   14243.23390079  .00000196  00000-0  62777-4 0  8595
2 25287  86.3944 290.6953 0002103 105.9870 254.1557 14.34218187858661
   end_orbit
end_platform

platform IRIDIUM_65_(25288) IRIDIUM
   orbit
1 25288U 98021D   14243.24847225  .00000200  00000-0  64420-4 0  8871
2 25288  86.3942 290.6113 0002507 105.8084 296.7899 14.34218505858689
   end_orbit
end_platform

platform IRIDIUM_66_(25289) IRIDIUM
   orbit
1 25289U 98021E   14243.25489233  .00000262  00000-0  86425-4 0  8365
2 25289  86.3941 290.5207 0002468 109.9743 293.0280 14.34217693858686
   end_orbit
end_platform

platform IRIDIUM_67_(25290) IRIDIUM
   orbit
1 25290U 98021F   14243.25293300  .00000203  00000-0  65504-4 0  6868
2 25290  86.3943 290.6427 0002381 109.0083 251.1371 14.34217479858696
   end_orbit
end_platform

platform IRIDIUM_68_(25291) IRIDIUM
   orbit
1 25291U 98021G   14243.25927218  .00000198  00000-0  63534-4 0  9116
2 25291  86.3944 290.7395 0002424 110.7012 249.4444 14.34218195858666
